NORAD_CAT_ID,OBJECT_NAME,OBJECT_TYPE,EPOCH,MEAN_MOTION,ECCENTRICITY,INCLINATION,RA_OF_ASC_NODE,ARG_OF_PERICENTER,MEAN_ANOMALY,BSTAR,MEAN_MOTION_DOT,MEAN_MOTION_DDOT,TLE_LINE0,TLE_LINE1,TLE_LINE2,SEMIMAJOR_AXIS,PERIOD,APOGEE,PERIGEE,DECAYED
50167.0,STARLINK-3271,PAYLOAD,2023-05-19 19:37:54,15.08845536,0.0001128,53.2153,179.9594,75.8955,284.2163,0.00039114,5.944e-05,0.0,0 STARLINK-3271,1 50167U 21125M   23139.81799101  .00005944  00000-0  39114-3 0  9997,2 50167  53.2153 179.9594 0001128  75.8955 284.2163 15.08845536 81735,6917.863,95.437,540.509,538.948,0.0
50167.0,STARLINK-3271,PAYLOAD,2023-05-20 09:56:21,15.08864815,0.0001093,53.2148,177.2834,79.0064,281.1051,0.00041183,6.277e-05,0.0,0 STARLINK-3271,1 50167U 21125M   23140.41413881  .00006277  00000-0  41183-3 0  9992,2 50167  53.2148 177.2834 0001093  79.0064 281.1051 15.08864815 81345,6917.805,95.436,540.426,538.913,0.0
50167.0,STARLINK-3271,PAYLOAD,2023-05-20 11:31:44,15.08869185,0.0001124,53.215,176.9858,77.5356,282.5762,0.00049958,7.678e-05,0.0,0 STARLINK-3271,1 50167U 21125M   23140.48037725  .00007678  00000-0  49958-3 0  9992,2 50167  53.2150 176.9858 0001124  77.5356 282.5762 15.08869185 81835,6917.791,95.436,540.434,538.879,0.0
50167.0,STARLINK-3271,PAYLOAD,2023-05-21 01:50:12,15.08858346,0.0001128,53.2143,174.3094,78.0032,282.1086,0.00012502,1.703e-05,0.0,0 STARLINK-3271,1 50167U 21125M   23141.07653274  .00001703  00000-0  12502-3 0  9999,2 50167  53.2143 174.3094 0001128  78.0032 282.1086 15.08858346 81441,6917.824,95.436,540.47,538.909,0.0
50167.0,STARLINK-3271,PAYLOAD,2023-05-21 09:47:07,15.08856981,0.0001164,53.2154,172.8228,79.7685,280.3439,0.00010158,1.33e-05,0.0,0 STARLINK-3271,1 50167U 21125M   23141.40773050  .00001330  00000-0  10158-3 0  9992,2 50167  53.2154 172.8228 0001164  79.7685 280.3439 15.08856981 81970,6917.828,95.436,540.499,538.888,0.0
50167.0,STARLINK-3271,PAYLOAD,2023-05-21 19:19:27,15.08845626,0.0001292,53.2158,171.0376,75.8767,284.2369,-7.3374e-05,-1.456e-05,0.0,0 STARLINK-3271,1 50167U 21125M   23141.80517444 -.00001456  00000-0 -73374-4 0  9990,2 50167  53.2158 171.0376 0001292  75.8767 284.2369 15.08845626 82036,6917.863,95.437,540.622,538.834,0.0
50167.0,STARLINK-3271,PAYLOAD,2023-05-21 22:30:13,15.08843027,0.0001235,53.2148,170.443,79.3607,280.7524,-0.00010475,-1.955e-05,0.0,0 STARLINK-3271,1 50167U 21125M   23141.93765510 -.00001955  00000-0 -10475-3 0  9999,2 50167  53.2148 170.4430 0001235  79.3607 280.7524 15.08843027 81573,6917.871,95.437,540.59,538.882,0.0
50167.0,STARLINK-3271,PAYLOAD,2023-05-22 06:27:09,15.08834993,0.0001216,53.2146,168.9556,79.5157,280.5972,-0.00019982,-3.466e-05,0.0,0 STARLINK-3271,1 50167U 21125M   23142.26885960 -.00003466  00000-0 -19982-3 0  9999,2 50167  53.2146 168.9556 0001216  79.5157 280.5972 15.08834993 81626,6917.896,95.438,540.602,538.919,0.0
50167.0,STARLINK-3271,PAYLOAD,2023-05-22 11:13:18,15.08833367,0.0001098,53.2147,168.0623,85.9808,274.131,-0.00022566,-3.877e-05,0.0,0 STARLINK-3271,1 50167U 21125M   23142.46758042 -.00003877  00000-0 -22566-3 0  9999,2 50167  53.2147 168.0623 0001098  85.9808 274.1310 15.08833367 82131,6917.901,95.438,540.525,539.006,0.0
50167.0,STARLINK-3271,PAYLOAD,2023-05-22 19:10:14,15.08836078,0.000118,53.215,166.5778,77.6071,282.5053,-0.00012288,-2.243e-05,0.0,0 STARLINK-3271,1 50167U 21125M   23142.79878092 -.00002243  00000-0 -12288-3 0  9999,2 50167  53.2150 166.5778 0001180  77.6071 282.5053 15.08836078 82185,6917.892,95.438,540.574,538.941,0.0
50167.0,STARLINK-3271,PAYLOAD,2023-05-23 11:04:06,15.0883906,0.0001301,53.2161,163.6033,97.1063,263.0077,-1.7334e-05,-5.64e-06,0.0,0 STARLINK-3271,1 50167U 21125M   23143.46118274 -.00000564  00000-0 -17334-4 0  9995,2 50167  53.2161 163.6033 0001301  97.1063 263.0077 15.08839060 81804,6917.883,95.438,540.648,538.848,0.0
50167.0,STARLINK-3271,PAYLOAD,2023-05-24 10:54:53,15.08838335,0.0001144,53.2161,159.1445,69.8511,290.2604,0.00018114,2.596e-05,0.0,0 STARLINK-3271,1 50167U 21125M   23144.45478386  .00002596  00000-0  18114-3 0  9999,2 50167  53.2161 159.1445 0001144  69.8511 290.2604 15.08838335 82432,6917.885,95.438,540.542,538.959,0.0
50167.0,STARLINK-3271,PAYLOAD,2023-05-26 04:14:54,15.08841828,0.0001234,53.2166,151.412,74.6742,285.4386,7.0062e-05,8.27e-06,0.0,0 STARLINK-3271,1 50167U 21125M   23146.17702408  .00000827  00000-0  70062-4 0  9991,2 50167  53.2166 151.4120 0001234  74.6742 285.4386 15.08841828 82212,6917.875,95.437,540.593,538.886,0.0
50167.0,STARLINK-3271,PAYLOAD,2023-05-26 10:36:27,15.0884171,0.0001243,53.2164,150.2227,73.393,286.7199,5.4788e-05,5.84e-06,0.0,0 STARLINK-3271,1 50167U 21125M   23146.44198373  .00000584  00000-0  54788-4 0  9998,2 50167  53.2164 150.2227 0001243  73.3930 286.7199 15.08841710 82733,6917.875,95.437,540.6,538.88,0.0
50167.0,STARLINK-3271,PAYLOAD,2023-05-27 10:27:14,15.08838354,0.0001167,53.2157,145.763,78.0459,282.0664,-3.8309e-07,-2.94e-06,0.0,0 STARLINK-3271,1 50167U 21125M   23147.43558587 -.00000294  00000-0 -38309-6 0  9998,2 50167  53.2157 145.7630 0001167  78.0459 282.0664 15.08838354 82405,6917.885,95.438,540.558,538.943,0.0
50167.0,STARLINK-3271,PAYLOAD,2023-05-27 16:48:47,15.08839364,0.0001179,53.2159,144.5735,74.4852,285.627,2.0773e-05,4.3e-07,0.0,0 STARLINK-3271,1 50167U 21125M   23147.70054489  .00000043  00000-0  20773-4 0  9994,2 50167  53.2159 144.5735 0001179  74.4852 285.6270 15.08839364 82921,6917.882,95.438,540.563,538.932,0.0
50167.0,STARLINK-3271,PAYLOAD,2023-05-28 05:31:52,15.08840264,0.00012,53.2159,142.1947,75.1941,284.9184,5.6943e-05,6.19e-06,0.0,0 STARLINK-3271,1 50167U 21125M   23148.23046410  .00000619  00000-0  56943-4 0  9995,2 50167  53.2159 142.1947 0001200  75.1941 284.9184 15.08840264 83009,6917.88,95.438,540.575,538.914,0.0
50167.0,STARLINK-3271,PAYLOAD,2023-05-28 16:39:34,15.08840558,0.0001205,53.2161,140.1132,74.6809,285.4316,6.6283e-05,7.67e-06,0.0,0 STARLINK-3271,1 50167U 21125M   23148.69414384  .00000767  00000-0  66283-4 0  9996,2 50167  53.2161 140.1132 0001205  74.6809 285.4316 15.08840558 82590,6917.879,95.438,540.577,538.91,0.0
50167.0,STARLINK-3271,PAYLOAD,2023-05-29 06:58:02,15.08841318,0.0001242,53.2163,137.4371,74.305,285.8079,8.7818e-05,1.11e-05,0.0,0 STARLINK-3271,1 50167U 21125M   23149.29030323  .00001110  00000-0  87818-4 0  9990,2 50167  53.2163 137.4371 0001242  74.3050 285.8079 15.08841318 83161,6917.876,95.437,540.601,538.882,0.0
50167.0,STARLINK-3271,PAYLOAD,2023-05-29 16:30:21,15.08840352,0.0001255,53.2163,135.653,73.8314,286.2816,6.6647e-05,7.73e-06,0.0,0 STARLINK-3271,1 50167U 21125M   23149.68774429  .00000773  00000-0  66647-4 0  9996,2 50167  53.2163 135.6530 0001255  73.8314 286.2816 15.08840352 83227,6917.879,95.438,540.613,538.876,0.0
50167.0,STARLINK-3271,PAYLOAD,2023-05-30 05:13:26,15.08840172,0.0001295,53.2163,133.2744,73.9269,286.1866,3.7233e-05,3.05e-06,0.0,0 STARLINK-3271,1 50167U 21125M   23150.21766527  .00000305  00000-0  37233-4 0  9997,2 50167  53.2163 133.2744 0001295  73.9269 286.1866 15.08840172 82821,6917.88,95.438,540.641,538.849,0.0
50167.0,STARLINK-3271,PAYLOAD,2023-05-31 05:04:13,15.08842867,0.0001294,53.2168,128.8123,83.1462,276.9677,6.321e-05,7.18e-06,0.0,0 STARLINK-3271,1 50167U 21125M   23151.21126207  .00000718  00000-0  63210-4 0  9995,2 50167  53.2168 128.8123 0001294  83.1462 276.9677 15.08842867 83454,6917.872,95.437,540.632,538.841,0.0
50167.0,STARLINK-3271,PAYLOAD,2023-06-01 04:55:00,15.08841641,0.0001274,53.2169,124.3516,84.5697,275.544,5.3971e-05,5.71e-06,0.0,0 STARLINK-3271,1 50167U 21125M   23152.20486298  .00000571  00000-0  53971-4 0  9994,2 50167  53.2169 124.3516 0001274  84.5697 275.5440 15.08841641 83121,6917.875,95.437,540.622,538.859,0.0
50167.0,STARLINK-3271,PAYLOAD,2023-06-01 08:05:46,15.08841219,0.0001278,53.217,123.7572,84.4191,275.6947,5.0918e-05,5.23e-06,0.0,0 STARLINK-3271,1 50167U 21125M   23152.33734326  .00000523  00000-0  50918-4 0  9991,2 50167  53.2170 123.7572 0001278  84.4191 275.6947 15.08841219 83629,6917.877,95.437,540.626,538.858,0.0
50167.0,STARLINK-3271,PAYLOAD,2023-06-02 03:10:24,15.08838231,0.0001278,53.2167,120.1881,84.7635,275.3503,2.6764e-05,1.38e-06,0.0,0 STARLINK-3271,1 50167U 21125M   23153.13222690  .00000138  00000-0  26764-4 0  9990,2 50167  53.2167 120.1881 0001278  84.7635 275.3503 15.08838231 83260,6917.886,95.438,540.635,538.867,0.0
50167.0,STARLINK-3271,PAYLOAD,2023-06-02 04:45:47,15.08840288,0.0001263,53.2167,119.8914,83.9337,276.1799,4.3763e-05,4.09e-06,0.0,0 STARLINK-3271,1 50167U 21125M   23153.19846509  .00000409  00000-0  43763-4 0  9996,2 50167  53.2167 119.8914 0001263  83.9337 276.1799 15.08840288 83751,6917.88,95.438,540.618,538.871,0.0
50167.0,STARLINK-3271,PAYLOAD,2023-06-03 04:36:35,15.08835323,0.0001246,53.2164,115.4332,90.6036,269.5099,2.1516e-05,5.5e-07,0.0,0 STARLINK-3271,1 50167U 21125M   23154.19207280  .00000055  00000-0  21516-4 0  9993,2 50167  53.2164 115.4332 0001246  90.6036 269.5099 15.08835323 83423,6917.895,95.438,540.622,538.898,0.0
50167.0,STARLINK-3271,PAYLOAD,2023-06-03 22:05:49,15.08836365,0.000124,53.2165,112.1621,93.6645,266.4489,4.2177e-05,3.83e-06,0.0,0 STARLINK-3271,1 50167U 21125M   23154.92071402  .00000383  00000-0  42177-4 0  9999,2 50167  53.2165 112.1621 0001240  93.6645 266.4489 15.08836365 84014,6917.891,95.438,540.614,538.899,0.0
50167.0,STARLINK-3271,PAYLOAD,2023-06-04 13:59:40,15.08837644,0.0001232,53.2168,109.1882,89.6226,270.4908,8.9674e-05,1.14e-05,0.0,0 STARLINK-3271,1 50167U 21125M   23155.58311283  .00001140  00000-0  89674-4 0  9991,2 50167  53.2168 109.1882 0001232  89.6226 270.4908 15.08837644 84116,6917.888,95.438,540.605,538.9,0.0
50167.0,STARLINK-3271,PAYLOAD,2023-06-04 15:35:04,15.08837366,0.0001232,53.2167,108.8907,90.5126,269.6007,9.7072e-05,1.257e-05,0.0,0 STARLINK-3271,1 50167U 21125M   23155.64935298  .00001257  00000-0  97072-4 0  9996,2 50167  53.2167 108.8907 0001232  90.5126 269.6007 15.08837366 83647,6917.888,95.438,540.606,538.901,0.0
